start=new Date('2021-11-11T00:00:00.000Z').valueOf();
sats=[{"SEMIMAJOR_AXIS":"6925.315","INCLINATION":"53.0560","NORAD_CAT_ID":"48656","RCS_SIZE":"LARGE","MEAN_ANOMALY":"286.6029","OBJECT_NAME":"STARLINK-2701","PERIOD":"95.591","ELEMENT_SET_NO":"999","REF_FRAME":"TEME","CLASSIFICATION_TYPE":"U","FILE":"3211038","BSTAR":"0.00004230700000","MEAN_MOTION_DDOT":"0.0000000000000","GP_ID":"189426243","CENTER_NAME":"EARTH","PERIAPSIS":"546.274","MEAN_MOTION_DOT":"0.00000349","TIME_SYSTEM":"UTC","ARG_OF_PERICENTER":"73.5103","ECCENTRICITY":"0.00013090","SITE":"AFETR","OBJECT_TYPE":"PAYLOAD","TLE_LINE1":"1 48656U 21044U   21314.68330740  .00000349  00000-0  42307-4 0  9998","REV_AT_EPOCH":"2556","RA_OF_ASC_NODE":"14.5343","EPHEMERIS_TYPE":"0","APOAPSIS":"548.087","DECAY_DATE":null,"MEAN_ELEMENT_THEORY":"SGP4","EPOCH":"2021-11-10T16:23:57.759360","LAUNCH_DATE":"2021-05-26","TLE_LINE2":"2 48656  53.0560  14.5343 0001309  73.5103 286.6029 15.06410791 25567","MEAN_MOTION":"15.06410791","OBJECT_ID":"2021-044U","COUNTRY_CODE":"US"},{"MEAN_ELEMENT_THEORY":"SGP4","LAUNCH_DATE":"2021-05-26","EPOCH":"2021-11-10T14:43:08.238720","TLE_LINE2":"2 48657  53.0557  14.8497 0001633  61.7815 298.3338 15.06406424 25556","MEAN_MOTION":"15.06406424","OBJECT_ID":"2021-044V","COUNTRY_CODE":"US","SITE":"AFETR","REV_AT_EPOCH":"2555","TLE_LINE1":"1 48657U 21044V   21314.61328980  .00005350  00000-0  37771-3 0  9990","OBJECT_TYPE":"PAYLOAD","RA_OF_ASC_NODE":"14.8497","EPHEMERIS_TYPE":"0","DECAY_DATE":null,"APOAPSIS":"548.325","MEAN_MOTION_DDOT":"0.0000000000000","MEAN_MOTION_DOT":"0.00005350","PERIAPSIS":"546.063","CENTER_NAME":"EARTH","GP_ID":"189425912","TIME_SYSTEM":"UTC","ARG_OF_PERICENTER":"61.7815","ECCENTRICITY":"0.00016330","SEMIMAJOR_AXIS":"6925.329","RCS_SIZE":"LARGE","NORAD_CAT_ID":"48657","INCLINATION":"53.0557","MEAN_ANOMALY":"298.3338","ELEMENT_SET_NO":"999","PERIOD":"95.592","OBJECT_NAME":"STARLINK-2734","CLASSIFICATION_TYPE":"U","REF_FRAME":"TEME","FILE":"3211038","BSTAR":"0.00037771000000"},{"SITE":"AFETR","TLE_LINE1":"1 48658U 21044W   21314.54324627  .00005167  00000-0  36530-3 0  9995","REV_AT_EPOCH":"2644","OBJECT_TYPE":"PAYLOAD","RA_OF_ASC_NODE":"15.1772","EPHEMERIS_TYPE":"0","DECAY_DATE":null,"APOAPSIS":"547.986","MEAN_ELEMENT_THEORY":"SGP4","LAUNCH_DATE":"2021-05-26","EPOCH":"2021-11-10T13:02:16.477728","MEAN_MOTION":"15.06419746","TLE_LINE2":"2 48658  53.0572  15.1772 0001203  82.6937 277.4189 15.06419746 26446","OBJECT_ID":"2021-044W","COUNTRY_CODE":"US","SEMIMAJOR_AXIS":"6925.288","RCS_SIZE":"LARGE","NORAD_CAT_ID":"48658","INCLINATION":"53.0572","MEAN_ANOMALY":"277.4189","ELEMENT_SET_NO":"999","PERIOD":"95.591","OBJECT_NAME":"STARLINK-2647","CLASSIFICATION_TYPE":"U","REF_FRAME":"TEME","FILE":"3210877","BSTAR":"0.00036530000000","MEAN_MOTION_DDOT":"0.0000000000000","CENTER_NAME":"EARTH","PERIAPSIS":"546.320","MEAN_MOTION_DOT":"0.00005167","GP_ID":"189400093","TIME_SYSTEM":"UTC","ARG_OF_PERICENTER":"82.6937","ECCENTRICITY":"0.00012030"},{"SEMIMAJOR_AXIS":"6925.304","RCS_SIZE":"LARGE","INCLINATION":"53.0565","NORAD_CAT_ID":"48659","MEAN_ANOMALY":"287.3285","PERIOD":"95.591","ELEMENT_SET_NO":"999","OBJECT_NAME":"STARLINK-2717","CLASSIFICATION_TYPE":"U","REF_FRAME":"TEME","FILE":"3211038","BSTAR":"0.00035699000000","MEAN_MOTION_DDOT":"0.0000000000000","CENTER_NAME":"EARTH","PERIAPSIS":"546.300","MEAN_MOTION_DOT":"0.00005042","GP_ID":"189425729","TIME_SYSTEM":"UTC","ARG_OF_PERICENTER":"72.7841","ECCENTRICITY":"0.00012540","SITE":"AFETR","TLE_LINE1":"1 48659U 21044X   21314.47321764  .00005042  00000-0  35699-3 0  9994","REV_AT_EPOCH":"2553","OBJECT_TYPE":"PAYLOAD","RA_OF_ASC_NODE":"15.4843","EPHEMERIS_TYPE":"0","DECAY_DATE":null,"APOAPSIS":"548.037","MEAN_ELEMENT_THEORY":"SGP4","LAUNCH_DATE":"2021-05-26","EPOCH":"2021-11-10T11:21:26.004096","OBJECT_ID":"2021-044X","TLE_LINE2":"2 48659  53.0565  15.4843 0001254  72.7841 287.3285 15.06414603 25534","MEAN_MOTION":"15.06414603","COUNTRY_CODE":"US"},{"SITE":"AFETR","REV_AT_EPOCH":"2556","TLE_LINE1":"1 48660U 21044Y   21314.66856091  .00000968  00000-0  83859-4 0  9997","OBJECT_TYPE":"PAYLOAD","EPHEMERIS_TYPE":"0","DECAY_DATE":null,"APOAPSIS":"548.101","RA_OF_ASC_NODE":"14.6029","MEAN_MOTION":"15.06412916","TLE_LINE2":"2 48660  53.0570  14.6029 0001339  70.0348 290.0785 15.06412916 25560","OBJECT_ID":"2021-044Y","COUNTRY_CODE":"US","MEAN_ELEMENT_THEORY":"SGP4","LAUNCH_DATE":"2021-05-26","EPOCH":"2021-11-10T16:02:43.662624","MEAN_ANOMALY":"290.0785","PERIOD":"95.591","ELEMENT_SET_NO":"999","OBJECT_NAME":"STARLINK-2688","SEMIMAJOR_AXIS":"6925.309","RCS_SIZE":"LARGE","NORAD_CAT_ID":"48660","INCLINATION":"53.0570","BSTAR":"0.00008385900000","CLASSIFICATION_TYPE":"U","REF_FRAME":"TEME","FILE":"3211038","TIME_SYSTEM":"UTC","MEAN_MOTION_DDOT":"0.0000000000000","PERIAPSIS":"546.247","MEAN_MOTION_DOT":"0.00000968","CENTER_NAME":"EARTH","GP_ID":"189426338","ECCENTRICITY":"0.00013390","ARG_OF_PERICENTER":"70.0348"},{"SITE":"AFETR","OBJECT_TYPE":"PAYLOAD","TLE_LINE1":"1 48661U 21044Z   21314.40408543  .00003796  00000-0  27343-3 0  9992","REV_AT_EPOCH":"2656","RA_OF_ASC_NODE":"5.7803","EPHEMERIS_TYPE":"0","APOAPSIS":"547.879","DECAY_DATE":null,"MEAN_ELEMENT_THEORY":"SGP4","EPOCH":"2021-11-10T09:41:52.981152","LAUNCH_DATE":"2021-05-26","TLE_LINE2":"2 48661  53.0551   5.7803 0001066  76.2757 283.8351 15.06423900 26565","OBJECT_ID":"2021-044Z","MEAN_MOTION":"15.06423900","COUNTRY_CODE":"US","SEMIMAJOR_AXIS":"6925.275","INCLINATION":"53.0551","NORAD_CAT_ID":"48661","RCS_SIZE":"LARGE","MEAN_ANOMALY":"283.8351","OBJECT_NAME":"STARLINK-2708","PERIOD":"95.591","ELEMENT_SET_NO":"999","REF_FRAME":"TEME","CLASSIFICATION_TYPE":"U","FILE":"3210571","BSTAR":"0.00027343000000","MEAN_MOTION_DDOT":"0.0000000000000","GP_ID":"189369169","MEAN_MOTION_DOT":"0.00003796","PERIAPSIS":"546.402","CENTER_NAME":"EARTH","TIME_SYSTEM":"UTC","ARG_OF_PERICENTER":"76.2757","ECCENTRICITY":"0.00010660"},{"INCLINATION":"53.0568","NORAD_CAT_ID":"48662","RCS_SIZE":"LARGE","SEMIMAJOR_AXIS":"6925.314","OBJECT_NAME":"STARLINK-2726","PERIOD":"95.591","ELEMENT_SET_NO":"999","MEAN_ANOMALY":"279.1626","FILE":"3211038","REF_FRAME":"TEME","CLASSIFICATION_TYPE":"U","BSTAR":"0.00029354000000","GP_ID":"189425989","PERIAPSIS":"546.174","CENTER_NAME":"EARTH","MEAN_MOTION_DOT":"0.00004095","MEAN_MOTION_DDOT":"0.0000000000000","TIME_SYSTEM":"UTC","ARG_OF_PERICENTER":"80.9528","ECCENTRICITY":"0.00014520","OBJECT_TYPE":"PAYLOAD","REV_AT_EPOCH":"2568","TLE_LINE1":"1 48662U 21044AA  21314.53310029  .00004095  00000-0  29354-3 0  9995","SITE":"AFETR","RA_OF_ASC_NODE":"5.2076","APOAPSIS":"548.185","DECAY_DATE":null,"EPHEMERIS_TYPE":"0","EPOCH":"2021-11-10T12:47:39.865056","LAUNCH_DATE":"2021-05-26","MEAN_ELEMENT_THEORY":"SGP4","COUNTRY_CODE":"US","MEAN_MOTION":"15.06411249","TLE_LINE2":"2 48662  53.0568   5.2076 0001452  80.9528 279.1626 15.06411249 25686","OBJECT_ID":"2021-044AA"},{"BSTAR":"0.00035194000000","CLASSIFICATION_TYPE":"U","REF_FRAME":"TEME","FILE":"3211038","MEAN_ANOMALY":"284.0039","ELEMENT_SET_NO":"999","PERIOD":"95.591","OBJECT_NAME":"STARLINK-2667","SEMIMAJOR_AXIS":"6925.284","RCS_SIZE":"LARGE","NORAD_CAT_ID":"48663","INCLINATION":"53.0555","ECCENTRICITY":"0.00011850","ARG_OF_PERICENTER":"76.1082","TIME_SYSTEM":"UTC","MEAN_MOTION_DDOT":"0.0000000000000","MEAN_MOTION_DOT":"0.00004967","PERIAPSIS":"546.329","CENTER_NAME":"EARTH","GP_ID":"189426107","EPHEMERIS_TYPE":"0","DECAY_DATE":null,"APOAPSIS":"547.970","RA_OF_ASC_NODE":"4.6231","SITE":"AFETR","REV_AT_EPOCH":"2570","TLE_LINE1":"1 48663U 21044AB  21314.66210903  .00004967  00000-0  35194-3 0  9997","OBJECT_TYPE":"PAYLOAD","OBJECT_ID":"2021-044AB","TLE_LINE2":"2 48663  53.0555   4.6231 0001185  76.1082 284.0039 15.06420957 25706","MEAN_MOTION":"15.06420957","COUNTRY_CODE":"US","MEAN_ELEMENT_THEORY":"SGP4","LAUNCH_DATE":"2021-05-26","EPOCH":"2021-11-10T15:53:26.220192"},{"SEMIMAJOR_AXIS":"6925.315","RCS_SIZE":"LARGE","INCLINATION":"53.0564","NORAD_CAT_ID":"48664","MEAN_ANOMALY":"285.8813","PERIOD":"95.591","ELEMENT_SET_NO":"999","OBJECT_NAME":"STARLINK-2709","CLASSIFICATION_TYPE":"U","REF_FRAME":"TEME","FILE":"3210880","BSTAR":"0.00001492800000","MEAN_MOTION_DDOT":"0.0000000000000","CENTER_NAME":"EARTH","PERIAPSIS":"546.385","MEAN_MOTION_DOT":"-0.00000059","GP_ID":"189399640","TIME_SYSTEM":"UTC","ARG_OF_PERICENTER":"74.2302","ECCENTRICITY":"0.00011480","SITE":"AFETR","REV_AT_EPOCH":"2658","TLE_LINE1":"1 48664U 21044AC  21314.52572469 -.00000059  00000-0  14928-4 0  9993","OBJECT_TYPE":"PAYLOAD","RA_OF_ASC_NODE":"5.2416","EPHEMERIS_TYPE":"0","DECAY_DATE":null,"APOAPSIS":"547.975","MEAN_ELEMENT_THEORY":"SGP4","LAUNCH_DATE":"2021-05-26","EPOCH":"2021-11-10T12:37:02.613216","TLE_LINE2":"2 48664  53.0564   5.2416 0001148  74.2302 285.8813 15.06410904 26589","MEAN_MOTION":"15.06410904","OBJECT_ID":"2021-044AC","COUNTRY_CODE":"US"},{"TLE_LINE2":"2 48665  53.0567   4.5829 0001435  86.4767 273.6386 15.06408427 25702","OBJECT_ID":"2021-044AD","MEAN_MOTION":"15.06408427","COUNTRY_CODE":"US","MEAN_ELEMENT_THEORY":"SGP4","LAUNCH_DATE":"2021-05-26","EPOCH":"2021-11-10T16:07:59.406240","EPHEMERIS_TYPE":"0","DECAY_DATE":null,"APOAPSIS":"548.182","RA_OF_ASC_NODE":"4.5829","SITE":"AFETR","REV_AT_EPOCH":"2570","TLE_LINE1":"1 48665U 21044AD  21314.67221535  .00003717  00000-0  26821-3 0  9992","OBJECT_TYPE":"PAYLOAD","ECCENTRICITY":"0.00014350","ARG_OF_PERICENTER":"86.4767","TIME_SYSTEM":"UTC","MEAN_MOTION_DDOT":"0.0000000000000","PERIAPSIS":"546.194","CENTER_NAME":"EARTH","MEAN_MOTION_DOT":"0.00003717","GP_ID":"189425913","BSTAR":"0.00026821000000","CLASSIFICATION_TYPE":"U","REF_FRAME":"TEME","FILE":"3211038","MEAN_ANOMALY":"273.6386","PERIOD":"95.592","ELEMENT_SET_NO":"999","OBJECT_NAME":"STARLINK-2653","SEMIMAJOR_AXIS":"6925.323","RCS_SIZE":"LARGE","INCLINATION":"53.0567","NORAD_CAT_ID":"48665"}];
